[{"OBJECT_NAME":"EOSSAT-1","OBJECT_ID":"2023-001AW","EPOCH":"2026-03-09T17:40:07.010400","MEAN_MOTION":15.32339828,"ECCENTRICITY":0.00112629,"INCLINATION":97.3357,"RA_OF_ASC_NODE":130.2294,"ARG_OF_PERICENTER":110.3168,"MEAN_ANOMALY":249.9285,"EPHEMERIS_TYPE":0,"CLASSIFICATION_TYPE":"U","NORAD_CAT_ID":55053,"ELEMENT_SET_NO":999,"REV_AT_EPOCH":17668,"BSTAR":0.00024844399,"MEAN_MOTION_DOT":7.695e-5,"MEAN_MOTION_DDOT":0},{"OBJECT_NAME":"STARLINK-34463","OBJECT_ID":"2025-137E","EPOCH":"2026-03-09T23:20:09.352608","MEAN_MOTION":15.30189777,"ECCENTRICITY":9.945e-5,"INCLINATION":53.158,"RA_OF_ASC_NODE":334.2407,"ARG_OF_PERICENTER":128.873,"MEAN_ANOMALY":231.236,"EPHEMERIS_TYPE":0,"CLASSIFICATION_TYPE":"U","NORAD_CAT_ID":64598,"ELEMENT_SET_NO":999,"REV_AT_EPOCH":4077,"BSTAR":0.00060445475,"MEAN_MOTION_DOT":0.0001758,"MEAN_MOTION_DDOT":0}]
